{
"type": "FeatureCollection",
"name": "Koord_razrezov",
"features": [
{ "type": "Feature", "properties": { "NAME": "Kailiu" }, "geometry": { "type": "Point", "coordinates": [ 53.243988037109375, 39.988460540771484 ] } },
{ "type": "Feature", "properties": { "NAME": "Jangandga_1" }, "geometry": { "type": "Point", "coordinates": [ 53.391128540039062, 40.038986206054688 ] } },
{ "type": "Feature", "properties": { "NAME": "Jangandga_2" }, "geometry": { "type": "Point", "coordinates": [ 53.367977142333984, 40.038055419921875 ] } },
{ "type": "Feature", "properties": { "NAME": "Belek" }, "geometry": { "type": "Point", "coordinates": [ 53.842479705810547, 39.947898864746094 ] } },
{ "type": "Feature", "properties": { "NAME": "83_km" }, "geometry": { "type": "Point", "coordinates": [ 53.893943786621094, 39.912567138671875 ] } },
{ "type": "Feature", "properties": { "NAME": "86_km" }, "geometry": { "type": "Point", "coordinates": [ 53.928615570068359, 39.909988403320312 ] } },
{ "type": "Feature", "properties": { "NAME": "Kizil-Lai" }, "geometry": { "type": "Point", "coordinates": [ 53.078289031982422, 40.309413909912109 ] } },
{ "type": "Feature", "properties": { "NAME": "Erek" }, "geometry": { "type": "Point", "coordinates": [ 52.91094970703125, 40.429546356201172 ] } },
{ "type": "Feature", "properties": { "NAME": "Kamuchli-Bulak" }, "geometry": { "type": "Point", "coordinates": [ 53.498126983642578, 40.036090850830078 ] } },
{ "type": "Feature", "properties": { "NAME": "Kurtki" }, "geometry": { "type": "Point", "coordinates": [ 53.395397186279297, 40.075359344482422 ] } },
{ "type": "Feature", "properties": { "NAME": "Ahcha_Kui" }, "geometry": { "type": "Point", "coordinates": [ 52.828769683837891, 40.318927764892578 ] } },
{ "type": "Feature", "properties": { "NAME": "Dam-Dam-Cheshme" }, "geometry": { "type": "Point", "coordinates": [ 54.423492431640625, 39.536396026611328 ] } },
{ "type": "Feature", "properties": { "NAME": "Zunda-Tolga" }, "geometry": { "type": "Point", "coordinates": [ 44.310741207458321, 45.579443447138608 ] } },
{ "type": "Feature", "properties": { "NAME": "Razrez Levuy" }, "geometry": { "type": "Point", "coordinates": [ 43.386000156084812, 46.025292489210557 ] } },
{ "type": "Feature", "properties": { "NAME": "Sam-Manuch" }, "geometry": { "type": "Point", "coordinates": [ 42.713606528226663, 46.409915865239405 ] } },
{ "type": "Feature", "properties": { "NAME": "sait_Yulovskay" }, "geometry": { "type": "Point", "coordinates": [ 41.522712795417618, 46.750089152044943 ] } },
{ "type": "Feature", "properties": { "NAME": "Suhaia_Mechetka" }, "geometry": { "type": "Point", "coordinates": [ 44.6205143806935, 48.812432159354643 ] } },
{ "type": "Feature", "properties": { "NAME": "Kamennaya Balka" }, "geometry": { "type": "Point", "coordinates": [ 39.370616746527361, 47.275613065287743 ] } },
{ "type": "Feature", "properties": { "NAME": "Manas-Ozen 3" }, "geometry": { "type": "Point", "coordinates": [ 47.695682525634766, 42.721015930175781 ] } },
{ "type": "Feature", "properties": { "NAME": "Gentorun1" }, "geometry": { "type": "Point", "coordinates": [ 47.595462799072266, 42.703758239746094 ] } },
{ "type": "Feature", "properties": { "NAME": "Gentorun 2" }, "geometry": { "type": "Point", "coordinates": [ 47.610874176025391, 42.69677734375 ] } },
{ "type": "Feature", "properties": { "NAME": "Manas-ozen 4" }, "geometry": { "type": "Point", "coordinates": [ 47.662330627441406, 42.712059020996094 ] } },
{ "type": "Feature", "properties": { "NAME": "Manas-Ozen5" }, "geometry": { "type": "Point", "coordinates": [ 47.650466918945312, 42.706676483154297 ] } },
{ "type": "Feature", "properties": { "NAME": "Manas-Ozin 1" }, "geometry": { "type": "Point", "coordinates": [ 47.696914672851562, 42.717937469482422 ] } },
{ "type": "Feature", "properties": { "NAME": "Manas-Ozin 2" }, "geometry": { "type": "Point", "coordinates": [ 47.685356140136719, 42.717266082763672 ] } },
{ "type": "Feature", "properties": { "NAME": "Ruchagov XII-72" }, "geometry": { "type": "Point", "coordinates": [ 47.711281716495449, 42.71238849500849 ] } },
{ "type": "Feature", "properties": { "NAME": "Ruchagov_XIII-72" }, "geometry": { "type": "Point", "coordinates": [ 47.710916875841207, 42.718063794074396 ] } },
{ "type": "Feature", "properties": { "NAME": "Rushagov_XXIV-66" }, "geometry": { "type": "Point", "coordinates": [ 47.710903411740546, 42.723380516483161 ] } },
{ "type": "Feature", "properties": { "NAME": "Rushagov_XI-á-72" }, "geometry": { "type": "Point", "coordinates": [ 47.712335700607689, 42.740055577954806 ] } },
{ "type": "Feature", "properties": { "NAME": "Rushagov_XXVII-66" }, "geometry": { "type": "Point", "coordinates": [ 47.714632845467698, 42.744649867674831 ] } },
{ "type": "Feature", "properties": { "NAME": "Rushagov_XI-a72" }, "geometry": { "type": "Point", "coordinates": [ 47.712660003411457, 42.746568659263779 ] } },
{ "type": "Feature", "properties": { "NAME": "Rushagov_XI-72" }, "geometry": { "type": "Point", "coordinates": [ 47.710768237056151, 42.754541103189709 ] } },
{ "type": "Feature", "properties": { "NAME": "Rushagov_XX-66" }, "geometry": { "type": "Point", "coordinates": [ 47.714632845467698, 42.750811620946394 ] } },
{ "type": "Feature", "properties": { "NAME": "Rushagov_XX-a-66" }, "geometry": { "type": "Point", "coordinates": [ 47.716011132383706, 42.75451407795606 ] } },
{ "type": "Feature", "properties": { "NAME": "Rushagov_X-72" }, "geometry": { "type": "Point", "coordinates": [ 47.712271010250184, 42.764926140993097 ] } },
{ "type": "Feature", "properties": { "NAME": "Rushagov_X-72" }, "geometry": { "type": "Point", "coordinates": [ 47.709256486292034, 42.775168511929991 ] } },
{ "type": "Feature", "properties": { "NAME": "RuchagovXXI-66" }, "geometry": { "type": "Point", "coordinates": [ 47.716407217541615, 42.775168511929991 ] } },
{ "type": "Feature", "properties": { "NAME": "Rushagov_X-72" }, "geometry": { "type": "Point", "coordinates": [ 47.712271010250184, 42.764926140993097 ] } },
{ "type": "Feature", "properties": { "NAME": "Rushagov_X-72" }, "geometry": { "type": "Point", "coordinates": [ 47.709256486292034, 42.775168511929991 ] } },
{ "type": "Feature", "properties": { "NAME": "RuchagovXXI-66" }, "geometry": { "type": "Point", "coordinates": [ 47.716407217541615, 42.775168511929991 ] } },
{ "type": "Feature", "properties": { "NAME": "Ruchagov_XI-67" }, "geometry": { "type": "Point", "coordinates": [ 47.700757993313658, 42.792486238733318 ] } },
{ "type": "Feature", "properties": { "NAME": "Rushagov_VIII-72" }, "geometry": { "type": "Point", "coordinates": [ 47.702081158246045, 42.795038056817198 ] } },
{ "type": "Feature", "properties": { "NAME": "Ruchagov_XV-72" }, "geometry": { "type": "Point", "coordinates": [ 47.676645587208377, 42.713719224749049 ] } },
{ "type": "Feature", "properties": { "NAME": "Ruchagov_III-75" }, "geometry": { "type": "Point", "coordinates": [ 47.635748697224308, 42.90148995798188 ] } },
{ "type": "Feature", "properties": { "NAME": "Ruchagov_V-75" }, "geometry": { "type": "Point", "coordinates": [ 47.63500441694984, 42.902765867023817 ] } },
{ "type": "Feature", "properties": { "NAME": "Mangushlak_nazemn1" }, "geometry": { "type": "Point", "coordinates": [ 51.145704106858567, 44.436476810531765 ] } },
{ "type": "Feature", "properties": { "NAME": "Mangushlak_nazemn2" }, "geometry": { "type": "Point", "coordinates": [ 51.146931974546149, 44.43555590976608 ] } },
{ "type": "Feature", "properties": { "NAME": "Mangushlak_nazemn3" }, "geometry": { "type": "Point", "coordinates": [ 51.13895083457686, 44.426162721956075 ] } },
{ "type": "Feature", "properties": { "NAME": "Mangushlak_podzemn1" }, "geometry": { "type": "Point", "coordinates": [ 51.14202050379582, 44.435433122997324 ] } },
{ "type": "Feature", "properties": { "NAME": "Mangushlak_nazemn2" }, "geometry": { "type": "Point", "coordinates": [ 51.152518772524651, 44.433161567775294 ] } },
{ "type": "Feature", "properties": { "NAME": "Yashkul" }, "geometry": { "type": "Point", "coordinates": [ 44.458084914717432, 46.406694156104088 ] } }
]
}
